[{"OBJECT_NAME":"STARLINK-30136","OBJECT_ID":"2023-079X","EPOCH":"2026-03-09T22:00:01.999584","MEAN_MOTION":15.19398117,"ECCENTRICITY":0.00021819,"INCLINATION":42.9997,"RA_OF_ASC_NODE":105.423,"ARG_OF_PERICENTER":293.1714,"MEAN_ANOMALY":139.2854,"EPHEMERIS_TYPE":0,"CLASSIFICATION_TYPE":"U","NORAD_CAT_ID":56844,"ELEMENT_SET_NO":999,"REV_AT_EPOCH":573,"BSTAR":0.0032058096,"MEAN_MOTION_DOT":0.00069572,"MEAN_MOTION_DDOT":0},{"OBJECT_NAME":"FLOCK 4H-13","OBJECT_ID":"2025-276BC","EPOCH":"2026-03-09T18:22:51.517056","MEAN_MOTION":15.1947635,"ECCENTRICITY":7.13e-6,"INCLINATION":97.429,"RA_OF_ASC_NODE":144.1574,"ARG_OF_PERICENTER":66.765,"MEAN_ANOMALY":293.3593,"EPHEMERIS_TYPE":0,"CLASSIFICATION_TYPE":"U","NORAD_CAT_ID":66716,"ELEMENT_SET_NO":999,"REV_AT_EPOCH":1533,"BSTAR":0.00037410092,"MEAN_MOTION_DOT":7.871e-5,"MEAN_MOTION_DDOT":0}]
